TECHDEMOSAT-1 (TDS-1)   
1 40076U 14037H   26068.92236573  .00011104  00000+0  65800-3 0  9999
2 40076  98.3776  51.4583 0004745 234.8100 125.2683 15.11581991633227
STARLINK-4645           
1 53743U 22107AV  26068.83200108 -.00000086  00000+0  12715-4 0  9992
2 53743  53.2167 263.5720 0001382  88.4399 271.6752 15.08842500194612
